{"type": "FeatureCollection", "features": [ {"type": "Feature", "properties": {"norad_id": 39781, "name": "IRIDIUM 33 DEB", "group": "iridium-33-debris", "lat": 48.708676806620154, "lon": -103.25479177465205, "alt_km": 942.08041835938, "timestamp": "2025-12-25T19:00:39.736849+00:00", "meta": {"OBJECT_NAME": "IRIDIUM 33 DEB", "OBJECT_ID": "1997-051AAN", "EPOCH": "2025-12-25T00:29:27.081312", "MEAN_MOTION": 14.20935844, "ECCENTRICITY": 0.01727335, "INCLINATION": 86.3691, "RA_OF_ASC_NODE": 252.9174, "ARG_OF_PERICENTER": 233.7174, "MEAN_ANOMALY": 190.1518, "EPHEMERIS_TYPE": 0, "CLASSIFICATION_TYPE": "U", "NORAD_CAT_ID": 39781, "ELEMENT_SET_NO": 999, "REV_AT_EPOCH": 8281, "BSTAR": 0.0049709253, "MEAN_MOTION_DOT": 0.00012539, "MEAN_MOTION_DDOT": 0}, "tle": {"line1": "1 39781U 97051AAN 25359.02045233  .00012539  00000+0  49709-2 0  9993", "line2": "2 39781  86.3691 252.9174 0172733 233.7174 190.1518 14.20935844 82817"}}, "geometry": {"type": "Point", "coordinates": [-103.25479177465205, 48.708676806620154]}}, {"type": "Feature", "properties": {"norad_id": 40996, "name": "IRIDIUM 33 DEB", "group": "iridium-33-debris", "lat": 3.9540529980321364, "lon": 175.05465412528835, "alt_km": 585.8534802356335, "timestamp": "2025-12-25T19:00:39.736860+00:00", "meta": {"OBJECT_NAME": "IRIDIUM 33 DEB", "OBJECT_ID": "1997-051ABJ", "EPOCH": "2025-12-21T06:48:04.268736", "MEAN_MOTION": 14.9672554, "ECCENTRICITY": 0.001126, "INCLINATION": 86.3507, "RA_OF_ASC_NODE": 357.4159, "ARG_OF_PERICENTER": 39.2145, "MEAN_ANOMALY": 336.8251, "EPHEMERIS_TYPE": 0, "CLASSIFICATION_TYPE": "U", "NORAD_CAT_ID": 40996, "ELEMENT_SET_NO": 999, "REV_AT_EPOCH": 62616, "BSTAR": 0.0023808, "MEAN_MOTION_DOT": 0.00027327, "MEAN_MOTION_DDOT": 0}, "tle": {"line1": "1 40996U 97051ABJ 25355.28338274  .00027327  00000+0  23808-2 0  9990", "line2": "2 40996  86.3507 357.4159 0011260  39.2145 336.8251 14.96725540626169"}}, "geometry": {"type": "Point", "coordinates": [175.05465412528835, 3.9540529980321364]}}, {"type": "Feature", "properties": {"norad_id": 40998, "name": "IRIDIUM 33 DEB", "group": "iridium-33-debris", "lat": 13.554001876620541, "lon": 48.95364874212027, "alt_km": 737.5715442090814, "timestamp": "2025-12-25T19:00:39.736870+00:00", "meta": {"OBJECT_NAME": "IRIDIUM 33 DEB", "OBJECT_ID": "1997-051ABL", "EPOCH": "2025-12-24T09:47:24.769248", "MEAN_MOTION": 14.45133252, "ECCENTRICITY": 0.00087498, "INCLINATION": 86.3815, "RA_OF_ASC_NODE": 48.6709, "ARG_OF_PERICENTER": 52.6459, "MEAN_ANOMALY": 324.4141, "EPHEMERIS_TYPE": 0, "CLASSIFICATION_TYPE": "U", "NORAD_CAT_ID": 40998, "ELEMENT_SET_NO": 999, "REV_AT_EPOCH": 6850, "BSTAR": 0.00046540464, "MEAN_MOTION_DOT": 1.648e-05, "MEAN_MOTION_DDOT": 0}, "tle": {"line1": "1 40998U 97051ABL 25358.40792557  .00001648  00000+0  46540-3 0  9994", "line2": "2 40998  86.3815  48.6709 0008749  52.6459 324.4141 14.45133252 68504"}}, "geometry": {"type": "Point", "coordinates": [48.95364874212027, 13.554001876620541]}}, {"type": "Feature", "properties": {"norad_id": 46435, "name": "IRIDIUM 33 DEB", "group": "iridium-33-debris", "lat": 18.18428845337785, "lon": -170.44550231178468, "alt_km": 901.0801658811688, "timestamp": "2025-12-25T19:00:39.736880+00:00", "meta": {"OBJECT_NAME": "IRIDIUM 33 DEB", "OBJECT_ID": "1997-051ABN", "EPOCH": "2025-12-23T07:26:56.673024", "MEAN_MOTION": 14.32901113, "ECCENTRICITY": 0.02063954, "INCLINATION": 86.2811, "RA_OF_ASC_NODE": 189.3996, "ARG_OF_PERICENTER": 241.8575, "MEAN_ANOMALY": 300.4526, "EPHEMERIS_TYPE": 0, "CLASSIFICATION_TYPE": "U", "NORAD_CAT_ID": 46435, "ELEMENT_SET_NO": 999, "REV_AT_EPOCH": 8067, "BSTAR": 0.0098042113, "MEAN_MOTION_DOT": 0.00034078, "MEAN_MOTION_DDOT": 0}, "tle": {"line1": "1 46435U 97051ABN 25357.31037816  .00034078  00000+0  98042-2 0  9991", "line2": "2 46435  86.2811 189.3996 0206395 241.8575 300.4526 14.32901113 80678"}}, "geometry": {"type": "Point", "coordinates": [-170.44550231178468, 18.18428845337785]}}, {"type": "Feature", "properties": {"norad_id": 46734, "name": "IRIDIUM 33 DEB", "group": "iridium-33-debris", "lat": -76.56641312290566, "lon": -18.74231859402283, "alt_km": 732.9338675089703, "timestamp": "2025-12-25T19:00:39.736890+00:00", "meta": {"OBJECT_NAME": "IRIDIUM 33 DEB", "OBJECT_ID": "1997-051ABR", "EPOCH": "2025-12-23T07:42:11.180736", "MEAN_MOTION": 14.41950916, "ECCENTRICITY": 0.00375691, "INCLINATION": 86.2641, "RA_OF_ASC_NODE": 358.2178, "ARG_OF_PERICENTER": 299.6503, "MEAN_ANOMALY": 123.5651, "EPHEMERIS_TYPE": 0, "CLASSIFICATION_TYPE": "U", "NORAD_CAT_ID": 46734, "ELEMENT_SET_NO": 999, "REV_AT_EPOCH": 63163, "BSTAR": 0.0010295637, "MEAN_MOTION_DOT": 3.42e-05, "MEAN_MOTION_DDOT": 0}, "tle": {"line1": "1 46734U 97051ABR 25357.32096274  .00003420  00000+0  10296-2 0  9999", "line2": "2 46734  86.2641 358.2178 0037569 299.6503 123.5651 14.41950916631633"}}, "geometry": {"type": "Point", "coordinates": [-18.74231859402283, -76.56641312290566]}}, {"type": "Feature", "properties": {"norad_id": 46965, "name": "IRIDIUM 33 DEB", "group": "iridium-33-debris", "lat": -24.317189513248113, "lon": 156.56696021138757, "alt_km": 695.8603331298127, "timestamp": "2025-12-25T19:00:39.736900+00:00", "meta": {"OBJECT_NAME": "IRIDIUM 33 DEB", "OBJECT_ID": "1997-051ABX", "EPOCH": "2025-12-23T05:18:49.392864", "MEAN_MOTION": 14.60370511, "ECCENTRICITY": 0.00170224, "INCLINATION": 86.3362, "RA_OF_ASC_NODE": 336.0473, "ARG_OF_PERICENTER": 295.0187, "MEAN_ANOMALY": 82.9345, "EPHEMERIS_TYPE": 0, "CLASSIFICATION_TYPE": "U", "NORAD_CAT_ID": 46965, "ELEMENT_SET_NO": 999, "REV_AT_EPOCH": 62421, "BSTAR": 0.00084803208, "MEAN_MOTION_DOT": 4.13e-05, "MEAN_MOTION_DDOT": 0}, "tle": {"line1": "1 46965U 97051ABX 25357.22140501  .00004130  00000+0  84803-3 0  9992", "line2": "2 46965  86.3362 336.0473 0017022 295.0187  82.9345 14.60370511624214"}}, "geometry": {"type": "Point", "coordinates": [156.56696021138757, -24.317189513248113]}}, {"type": "Feature", "properties": {"norad_id": 46971, "name": "IRIDIUM 33 DEB", "group": "iridium-33-debris", "lat": -86.3356991347949, "lon": -122.59893110789767, "alt_km": 576.3968519536093, "timestamp": "2025-12-25T19:00:39.736910+00:00", "meta": {"OBJECT_NAME": "IRIDIUM 33 DEB", "OBJECT_ID": "1997-051ACD", "EPOCH": "2025-12-18T04:46:20.926848", "MEAN_MOTION": 14.98336604, "ECCENTRICITY": 0.00026432, "INCLINATION": 86.3383, "RA_OF_ASC_NODE": 330.5483, "ARG_OF_PERICENTER": 282.6501, "MEAN_ANOMALY": 90.914, "EPHEMERIS_TYPE": 0, "CLASSIFICATION_TYPE": "U", "NORAD_CAT_ID": 46971, "ELEMENT_SET_NO": 999, "REV_AT_EPOCH": 64312, "BSTAR": 0.0022892837, "MEAN_MOTION_DOT": 0.00027356, "MEAN_MOTION_DDOT": 0}, "tle": {"line1": "1 46971U 97051ACD 25352.19885332  .00027356  00000+0  22893-2 0  9993", "line2": "2 46971  86.3383 330.5483 0002643 282.6501  90.9140 14.98336604643128"}}, "geometry": {"type": "Point", "coordinates": [-122.59893110789767, -86.3356991347949]}}, {"type": "Feature", "properties": {"norad_id": 46972, "name": "IRIDIUM 33 DEB", "group": "iridium-33-debris", "lat": -10.080183557913932, "lon": 33.14077553438848, "alt_km": 726.1432217666716, "timestamp": "2025-12-25T19:00:39.736921+00:00", "meta": {"OBJECT_NAME": "IRIDIUM 33 DEB", "OBJECT_ID": "1997-051ACE", "EPOCH": "2025-12-24T20:41:33.679968", "MEAN_MOTION": 14.50725222, "ECCENTRICITY": 0.00114655, "INCLINATION": 86.386, "RA_OF_ASC_NODE": 34.1849, "ARG_OF_PERICENTER": 73.1922, "MEAN_ANOMALY": 103.3991, "EPHEMERIS_TYPE": 0, "CLASSIFICATION_TYPE": "U", "NORAD_CAT_ID": 46972, "ELEMENT_SET_NO": 999, "REV_AT_EPOCH": 61748, "BSTAR": 0.00047832722, "MEAN_MOTION_DOT": 1.902e-05, "MEAN_MOTION_DDOT": 0}, "tle": {"line1": "1 46972U 97051ACE 25358.86219537  .00001902  00000+0  47833-3 0  9993", "line2": "2 46972  86.3860  34.1849 0011465  73.1922 103.3991 14.50725222617483"}}, "geometry": {"type": "Point", "coordinates": [33.14077553438848, -10.080183557913932]}}, {"type": "Feature", "properties": {"norad_id": 46974, "name": "IRIDIUM 33 DEB", "group": "iridium-33-debris", "lat": -78.98845699571163, "lon": -60.98903135005767, "alt_km": 778.4928658311792, "timestamp": "2025-12-25T19:00:39.736931+00:00", "meta": {"OBJECT_NAME": "IRIDIUM 33 DEB", "OBJECT_ID": "1997-051ACG", "EPOCH": "2025-12-24T13:33:38.674944", "MEAN_MOTION": 14.4467358, "ECCENTRICITY": 0.00953774, "INCLINATION": 86.2978, "RA_OF_ASC_NODE": 100.1118, "ARG_OF_PERICENTER": 148.7581, "MEAN_ANOMALY": 211.934, "EPHEMERIS_TYPE": 0, "CLASSIFICATION_TYPE": "U", "NORAD_CAT_ID": 46974, "ELEMENT_SET_NO": 999, "REV_AT_EPOCH": 57679, "BSTAR": 0.0036585288, "MEAN_MOTION_DOT": 0.00013438, "MEAN_MOTION_DDOT": 0}, "tle": {"line1": "1 46974U 97051ACG 25358.56503096  .00013438  00000+0  36585-2 0  9996", "line2": "2 46974  86.2978 100.1118 0095377 148.7581 211.9340 14.44673580576795"}}, "geometry": {"type": "Point", "coordinates": [-60.98903135005767, -78.98845699571163]}}, {"type": "Feature", "properties": {"norad_id": 46979, "name": "IRIDIUM 33 DEB", "group": "iridium-33-debris", "lat": -59.15613197286597, "lon": -131.35123701067494, "alt_km": 594.7791744101078, "timestamp": "2025-12-25T19:00:39.736942+00:00", "meta": {"OBJECT_NAME": "IRIDIUM 33 DEB", "OBJECT_ID": "1997-051ACM", "EPOCH": "2025-12-24T20:59:38.183136", "MEAN_MOTION": 14.90364123, "ECCENTRICITY": 0.002819, "INCLINATION": 86.3328, "RA_OF_ASC_NODE": 42.91, "ARG_OF_PERICENTER": 179.7106, "MEAN_ANOMALY": 180.4142, "EPHEMERIS_TYPE": 0, "CLASSIFICATION_TYPE": "U", "NORAD_CAT_ID": 46979, "ELEMENT_SET_NO": 999, "REV_AT_EPOCH": 35609, "BSTAR": 0.0040991, "MEAN_MOTION_DOT": 0.00040379, "MEAN_MOTION_DDOT": 0}, "tle": {"line1": "1 46979U 97051ACM 25358.87474749  .00040379  00000+0  40991-2 0  9997", "line2": "2 46979  86.3328  42.9100 0028190 179.7106 180.4142 14.90364123356090"}}, "geometry": {"type": "Point", "coordinates": [-131.35123701067494, -59.15613197286597]}}]}